{
  "norad_id": 65283,
  "name": "STARLINK-35015",
  "history": [
    {
      "epoch": "2026-03-28T21:02:27.137472Z",
      "apogee_km": 550.3097744975803,
      "perigee_km": 548.6891232267326,
      "latitude_deg": 1.4120535261720654e-05,
      "longitude_deg": -0.39572848025365964,
      "height_km": 553.0743046684811,
      "semi_major_axis_km": 6927.636448862156,
      "eccentricity": 0.00011697,
      "inclination_deg": 97.6045,
      "raan_deg": 141.5082,
      "arg_perigee_deg": 129.0985,
      "mean_anomaly_deg": 231.0346,
      "mean_motion_rev_day": 15.05653816
    },
    {
      "epoch": "2026-03-29T03:25:15.057696Z",
      "apogee_km": 550.3272237273186,
      "perigee_km": 548.653508955611,
      "latitude_deg": -2.952137208379909e-06,
      "longitude_deg": -96.09541016857759,
      "height_km": 553.0685162517516,
      "semi_major_axis_km": 6927.627366341465,
      "eccentricity": 0.0001208,
      "inclination_deg": 97.6042,
      "raan_deg": 141.7702,
      "arg_perigee_deg": 127.9276,
      "mean_anomaly_deg": 232.206,
      "mean_motion_rev_day": 15.05656777
    }
  ]
}